     2.11           N: GPS NAV DATA                         RINEX VERSION / TYPE
teqc  2019Feb25     CORS-ADM Account    20260505 18:45:02UTCPGM / RUN BY / DATE
Linux 2.4.21-27.ELsmp|Opteron|gcc|Linux 64|=+               COMMENT
     2.10           N: GPS NAV DATA                         COMMENT
rvacn.e(1404.07)                        2026-05-05T18:27 UTCCOMMENT
This file contains the validated broadcast navigation       COMMENT
messages from the following files:                          COMMENT
aaaa1250.26n, abmf125r.26n, albh125r.26n, alic125r.26n,     COMMENT
areq125r.26n, aruc125r.26n, baie125r.26n, bake125r.26n,     COMMENT
brew125r.26n, brst125r.26n, brux125r.26n, bucu125r.26n,     COMMENT
cebr125r.26n, chpi125r.26n, chum125r.26n, chur125r.26n,     COMMENT
ckis125r.26n, coco125r.26n, cro1125r.26n, darw125r.26n,     COMMENT
dav1125r.26n, dgar125r.26n, dlf1125r.26n, drao125r.26n,     COMMENT
dubo125r.26n, ebre125r.26n, faa1125r.26n, fair125r.26n,     COMMENT
falk125r.26n, flin125r.26n, glps125r.26n, glsv125r.26n,     COMMENT
gode125r.26n, guam125r.26n, harb125r.26n, hers125r.26n,     COMMENT
hlfx125r.26n, hob2125r.26n, hofn125r.26n, holb125r.26n,     COMMENT
hrao125r.26n, iqal125r.26n, ista125r.26n, joze125r.26n,     COMMENT
jplm125r.26n, kat1125r.26n, kiri125r.26n, kiru125r.26n,     COMMENT
kokb125r.26n, koug125r.26n, kour125r.26n, lmmf125r.26n,     COMMENT
lpal125r.26n, m0se125r.26n, mac1125r.26n, maju125r.26n,     COMMENT
mal2125r.26n, mar6125r.26n, mas1125r.26n, mat1125r.26n,     COMMENT
mate125r.26n, maw1125r.26n, mcm4125r.26n, mdo1125r.26n,     COMMENT
medi125r.26n, met3125r.26n, mkea125r.26n, mobs125r.26n,     COMMENT
mro1125r.26n, nain125r.26n, nano125r.26n, naur125r.26n,     COMMENT
nico125r.26n, nklg125r.26n, nlib125r.26n, nnor125r.26n,     COMMENT
not1125r.26n, nrc1125r.26n, onsa125r.26n, orid125r.26n,     COMMENT
palm125r.26n, pert125r.26n, picl125r.26n, pie1125r.26n,     COMMENT
pimo125r.26n, pohn125r.26n, prds125r.26n, ptvl125r.26n,     COMMENT
qaq1125r.26n, qiki125r.26n, reso125r.26n, reun125r.26n,     COMMENT
reyk125r.26n, riga125r.26n, sant125r.26n, sask125r.26n,     COMMENT
sch2125r.26n, scor125r.26n, solo125r.26n, stj3125r.26n,     COMMENT
stjo125r.26n, stpm125r.26n, suth125r.26n, sydn125r.26n,     COMMENT
thtg125r.26n, thu2125r.26n, tow2125r.26n, tuva125r.26n,     COMMENT
unbj125r.26n, usud125r.26n, vacs125r.26n, vald125r.26n,     COMMENT
vill125r.26n, vis0125r.26n, warn125r.26n, whit125r.26n,     COMMENT
will125r.26n, wsrt125r.26n, wtzr125r.26n, xmis125r.26n,     COMMENT
yar2125r.26n, yarr125r.26n, yebe125r.26n, yell125r.26n,     COMMENT
zim2125r.26n, zimm125r.26n                                  COMMENT
    1.9560D-08  2.2350D-08 -1.1920D-07 -1.1920D-07          ION ALPHA
    1.2080D+05  9.8300D+04 -1.9660D+05 -6.5540D+04          ION BETA
    0.000000000000D+00-1.776356839400D-15   319488     2417 DELTA-UTC: A0,A1,T,W
                                                            END OF HEADER
 7 26  5  5 12  0  0.0-1.811091788113D-04-4.320099833421D-12 0.000000000000D+00
    1.690000000000D+02 1.156250000000D+00 5.029138055215D-09-1.332672905644D+00
    5.532056093216D-07 2.081414381973D-02 5.360692739487D-06 5.153595342636D+03
    2.160000000000D+05 3.445893526077D-07-1.207841435924D+00 4.358589649200D-07
    9.506013751972D-01 2.661250000000D+02-1.971808503385D+00-8.112837932264D-09
    2.578678840896D-10 1.000000000000D+00 2.417000000000D+03 0.000000000000D+00
    2.000000000000D+00 0.000000000000D+00-1.071020960808D-08 1.690000000000D+02
    2.088180000000D+05 4.000000000000D+00
 8 26  5  5 12  0  0.0 4.489850252867D-04-7.389644451905D-12 0.000000000000D+00
    7.200000000000D+01 1.024375000000D+02 4.900918428639D-09 1.461648822283D+00
    5.561858415604D-06 1.159929938149D-02 8.162111043930D-06 5.153720514297D+03
    2.160000000000D+05-1.098960638046D-07 8.375852862292D-01 2.179294824600D-07
    9.429098156814D-01 2.145937500000D+02 5.389803873365D-01-8.232485773220D-09
   -1.689356082747D-10 1.000000000000D+00 2.417000000000D+03 0.000000000000D+00
    2.000000000000D+00 0.000000000000D+00 4.656612873077D-09 7.200000000000D+01
    2.088180000000D+05 4.000000000000D+00
 9 26  5  5 12  0  0.0 7.534041069448D-04-3.979039320257D-12 0.000000000000D+00
    1.030000000000D+02-4.865625000000D+01 4.041239762429D-09 2.062277940920D+00
   -2.453103661537D-06 3.385928343050D-03 9.655952453613D-06 5.153744848251D+03
    2.160000000000D+05 2.235174179077D-08-2.280956964476D+00 1.005828380585D-07
    9.655210315408D-01 1.948437500000D+02 2.047025096206D+00-7.599959425958D-09
    4.882346226460D-10 1.000000000000D+00 2.417000000000D+03 0.000000000000D+00
    2.000000000000D+00 0.000000000000D+00 4.656612873077D-10 1.030000000000D+02
    2.088180000000D+05 4.000000000000D+00
10 26  5  5 12  0  0.0-5.867704749107D-04 1.932676241267D-12 0.000000000000D+00
    1.150000000000D+02-9.978125000000D+01 3.424785513206D-09-2.778034407027D+00
   -5.163252353668D-06 1.095476082992D-02 6.042420864105D-06 5.153654012680D+03
    2.160000000000D+05 2.235174179077D-08 2.995504889088D+00-1.285225152969D-07
    9.939412083609D-01 2.786562500000D+02-2.259399419752D+00-7.422809189797D-09
   -1.028614274485D-10 1.000000000000D+00 2.417000000000D+03 0.000000000000D+00
    2.000000000000D+00 0.000000000000D+00 2.328306436539D-09 1.150000000000D+02
    2.088180000000D+05 4.000000000000D+00
11 26  5  5 12  0  0.0-3.504650667310D-04 1.261923898710D-11 0.000000000000D+00
    3.300000000000D+01 3.140625000000D+01 4.629478550650D-09 6.853727635666D-01
    1.674517989159D-06 2.247627940960D-03 1.143664121628D-06 5.153607641220D+03
    2.160000000000D+05-2.048909664154D-08 1.978328751208D+00 1.862645149231D-08
    9.630188608467D-01 3.595625000000D+02-2.343538917551D+00-8.416064848597D-09
   -1.035757429169D-10 1.000000000000D+00 2.417000000000D+03 0.000000000000D+00
    2.000000000000D+00 0.000000000000D+00-8.847564458847D-09 8.010000000000D+02
    2.088180000000D+05 4.000000000000D+00
12 26  5  5 12  0  0.0-6.078067235649D-04 1.136868377216D-13 0.000000000000D+00
    1.150000000000D+02 1.868750000000D+01 4.649122226030D-09-2.056556197672D+00
    1.126900315285D-06 8.839007816277D-03 8.836388587952D-06 5.153738061905D+03
    2.160000000000D+05 1.005828380585D-07-8.967952906664D-02 1.005828380585D-07
    9.593046171736D-01 2.079687500000D+02 1.576936012572D+00-7.739250942295D-09
   -3.428714248282D-10 1.000000000000D+00 2.417000000000D+03 0.000000000000D+00
    2.000000000000D+00 0.000000000000D+00-1.257285475731D-08 1.150000000000D+02
    2.088180000000D+05 4.000000000000D+00
13 26  5  5 12  0  0.0 2.755206078291D-04 0.000000000000D+00 0.000000000000D+00
    8.000000000000D+00 6.093750000000D+00 4.722339561541D-09 1.120302899170D+00
    3.669410943985D-07 2.080396516249D-04 8.510425686836D-06 5.153615756989D+03
    2.160000000000D+05-3.166496753693D-08-1.982339270902D-01-1.490116119385D-08
    9.596952192266D-01 2.170937500000D+02-1.570048778582D+00-7.897114660810D-09
   -3.500145795122D-10 1.000000000000D+00 2.417000000000D+03 0.000000000000D+00
    2.000000000000D+00 6.300000000000D+01-8.381903171539D-09 8.000000000000D+00
    2.088180000000D+05 4.000000000000D+00
14 26  5  5 12  0  0.0 7.454282604158D-04 1.136868377216D-12 0.000000000000D+00
    1.930000000000D+02 8.625000000000D+00 4.988779231251D-09-2.184248305681D+00
    2.644956111908D-07 7.061102311127D-03 8.804723620415D-06 5.153656932831D+03
    2.160000000000D+05 1.098960638046D-07-1.452935755349D-01-1.452863216400D-07
    9.426042852406D-01 2.007187500000D+02-2.715813629407D+00-8.003547665600D-09
   -3.289422731946D-10 1.000000000000D+00 2.417000000000D+03 0.000000000000D+00
    2.000000000000D+00 0.000000000000D+00-8.381903171539D-09 9.610000000000D+02
    2.113680000000D+05 4.000000000000D+00
15 26  5  5 12  0  0.0 4.089628346264D-04 3.296918293927D-12 0.000000000000D+00
    3.900000000000D+01-5.440625000000D+01 4.703053043894D-09 4.639296192051D-01
   -2.825632691383D-06 1.670198421925D-02 9.277835488319D-06 5.153727260590D+03
    2.160000000000D+05-2.309679985046D-07-2.426506758409D+00-1.192092895508D-07
    9.436159164991D-01 1.979687500000D+02 1.513632182570D+00-8.267487231171D-09
    2.817974522807D-10 1.000000000000D+00 2.417000000000D+03 0.000000000000D+00
    2.000000000000D+00 0.000000000000D+00-1.117587089539D-08 3.900000000000D+01
    2.119690000000D+05 4.000000000000D+00
16 26  5  5 12  0  0.0 2.575125545263D-04 6.934897101019D-12 0.000000000000D+00
    2.700000000000D+01 1.271875000000D+01 4.562332896621D-09 2.513813109583D+00
    5.252659320831D-07 1.499901677016D-02 9.156763553619D-06 5.153678647995D+03
    2.160000000000D+05-2.607703208923D-08-7.281918461704D-02-2.328306436539D-07
    9.584149640245D-01 2.011875000000D+02 9.331684007238D-01-7.597459321819D-09
   -3.853731951976D-10 1.000000000000D+00 2.417000000000D+03 0.000000000000D+00
    2.000000000000D+00 0.000000000000D+00-1.071020960808D-08 2.700000000000D+01
    2.088180000000D+05 4.000000000000D+00
17 26  5  5 12  0  0.0-1.283353194594D-04-8.412825991400D-12 0.000000000000D+00
    9.200000000000D+01 1.158437500000D+02 4.421969907082D-09 1.434985624705D+00
    5.796551704407D-06 1.259760034736D-02 7.310882210732D-06 5.153635591507D+03
    2.160000000000D+05 2.384185791016D-07 9.432559289327D-01-1.993030309677D-07
    9.584835924375D-01 2.323437500000D+02-1.110688557665D+00-7.876399512226D-09
   -8.393206753608D-11 1.000000000000D+00 2.417000000000D+03 0.000000000000D+00
    2.000000000000D+00 0.000000000000D+00-1.117587089539D-08 9.200000000000D+01
    2.095680000000D+05 4.000000000000D+00
